[{"OBJECT_NAME":"YAOGAN-27","OBJECT_ID":"2015-040A","EPOCH":"2026-03-09T23:21:37.385568","MEAN_MOTION":13.16063344,"ECCENTRICITY":0.00088956,"INCLINATION":100.1112,"RA_OF_ASC_NODE":59.6878,"ARG_OF_PERICENTER":83.8271,"MEAN_ANOMALY":276.3856,"EPHEMERIS_TYPE":0,"CLASSIFICATION_TYPE":"U","NORAD_CAT_ID":40878,"ELEMENT_SET_NO":999,"REV_AT_EPOCH":50461,"BSTAR":-0.0012687486,"MEAN_MOTION_DOT":-5.24e-6,"MEAN_MOTION_DDOT":0},{"OBJECT_NAME":"PEGASUS DEB","OBJECT_ID":"1994-029AFG","EPOCH":"2026-03-08T04:30:15.278976","MEAN_MOTION":13.94053374,"ECCENTRICITY":0.04343673,"INCLINATION":82.2874,"RA_OF_ASC_NODE":237.0889,"ARG_OF_PERICENTER":97.0097,"MEAN_ANOMALY":268.0663,"EPHEMERIS_TYPE":0,"CLASSIFICATION_TYPE":"U","NORAD_CAT_ID":39321,"ELEMENT_SET_NO":999,"REV_AT_EPOCH":64017,"BSTAR":0.00075688702,"MEAN_MOTION_DOT":2.229e-5,"MEAN_MOTION_DDOT":0}]
